{
  "53676": {
    "noradId": "53676",
    "tle": [
      "1 53676C 22105AE  26029.19284722 -.00013667  00000+0 -10659-2 0   292",
      "2 53676  97.6029 271.5511 0003696  60.0344 212.9153 15.01276091    11"
    ]
  },
  "53677": {
    "noradId": "53677",
    "tle": [
      "1 53677C 22105AF  26029.19215278 -.00002531  00000+0 -17578-3 0   299",
      "2 53677  97.6044 272.3048 0002218  89.3168 160.1741 15.05650723    19"
    ]
  },
  "53679": {
    "noradId": "53679",
    "tle": [
      "1 53679C 22105AH  26029.19284722 -.00005212  00000+0 -36195-3 0   296",
      "2 53679  97.6019 272.3734 0002483  86.6738 346.5535 15.05650559    10"
    ]
  },
  "53680": {
    "noradId": "53680",
    "tle": [
      "1 53680C 22105AJ  26029.19006944 -.00003452  00000+0 -23971-3 0   298",
      "2 53680  97.6044 272.2837 0002294  89.0485 164.1632 15.05652035    12"
    ]
  },
  "53681": {
    "noradId": "53681",
    "tle": [
      "1 53681C 22105AK  26029.19145833 -.00001890  00000+0 -14746-3 0   294",
      "2 53681  97.6019 271.5620 0003893  36.3931 269.1848 15.01247485    14"
    ]
  },
  "53682": {
    "noradId": "53682",
    "tle": [
      "1 53682C 22105AL  26029.19284722 -.00002792  00000+0 -19388-3 0   295",
      "2 53682  97.6023 272.2352 0001923  87.8061  75.4802 15.05651013    15"
    ]
  },
  "53683": {
    "noradId": "53683",
    "tle": [
      "1 53683C 22105AM  26029.19145833 -.00010326  00000+0 -80541-3 0   296",
      "2 53683  97.6029 271.5451 0002660  72.7635 201.3643 15.01272436    10"
    ]
  },
  "53684": {
    "noradId": "53684",
    "tle": [
      "1 53684C 22105AN  26029.19423611 -.00001573  00000+0 -12274-3 0   292",
      "2 53684  97.6049 271.6085 0001349  91.2757 109.2206 15.01262266    12"
    ]
  },
  "53685": {
    "noradId": "53685",
    "tle": [
      "1 53685C 22105AP  26029.19145833 -.00007581  00000+0 -59139-3 0   296",
      "2 53685  97.6014 271.5509 0003111  56.3708 257.7704 15.01264854    19"
    ]
  },
  "53686": {
    "noradId": "53686",
    "tle": [
      "1 53686C 22105AQ  26029.19145833 -.00090283  00000+0 -70452-2 0   298",
      "2 53686  97.6028 271.5939 0000341 345.6079 119.8966 15.01339195    18"
    ]
  },
  "53687": {
    "noradId": "53687",
    "tle": [
      "1 53687C 22105AR  26029.19423611  .00003663  00000+0  25436-3 0   299",
      "2 53687  97.6027 272.2421 0001896  82.0781 103.7234 15.05645768    10"
    ]
  },
  "53688": {
    "noradId": "53688",
    "tle": [
      "1 53688C 22105AS  26029.19006944 -.00010290  00000+0 -80264-3 0   292",
      "2 53688  97.6014 271.5408 0003181  29.0209 308.9293 15.01272426    16"
    ]
  },
  "53690": {
    "noradId": "53690",
    "tle": [
      "1 53690C 22105AU  26029.18937500 -.00002335  00000+0 -18216-3 0   294",
      "2 53690  97.6034 271.4906 0003202  76.0597 138.1192 15.01263054    17"
    ]
  },
  "53691": {
    "noradId": "53691",
    "tle": [
      "1 53691C 22105AV  26029.19284722 -.00004944  00000+0 -34330-3 0   290",
      "2 53691  97.6037 272.2812 0002570  90.5219 222.7418 15.05652495    11"
    ]
  },
  "53692": {
    "noradId": "53692",
    "tle": [
      "1 53692C 22105AW  26029.20187500  .00057759  00000+0  27743-2 0   298",
      "2 53692  97.6252 275.7750 0004499  53.4749 128.4753 15.18853732    13"
    ]
  },
  "53693": {
    "noradId": "53693",
    "tle": [
      "1 53693C 22105AX  26029.19562500 -.00001222  00000+0 -84844-4 0   297",
      "2 53693  97.6033 272.3764 0001832  92.3016 115.9740 15.05648130    13"
    ]
  },
  "53700": {
    "noradId": "53700",
    "tle": [
      "1 53700C 22107A   26029.19215278 -.00025976  00000+0 -16289-2 0   293",
      "2 53700  53.2174  61.0604 0001340  88.9967   7.7065 15.08863244    18"
    ]
  },
  "53701": {
    "noradId": "53701",
    "tle": [
      "1 53701C 22107B   26029.18798611 -.00005548  00000+0 -34792-3 0   293",
      "2 53701  53.2174  61.0400 0001387  88.9144   5.1838 15.08840650    17"
    ]
  },
  "53702": {
    "noradId": "53702",
    "tle": [
      "1 53702C 22107C   26029.18937500 -.00065016  00000+0 -40784-2 0   299",
      "2 53702  53.2176  46.3457 0001602  83.4346 240.5692 15.08890186    14"
    ]
  },
  "53703": {
    "noradId": "53703",
    "tle": [
      "1 53703C 22107D   26029.18937500 -.00021028  00000+0 -13186-2 0   291",
      "2 53703  53.2169  61.1915 0001367  89.6248 291.8974 15.08859336    12"
    ]
  },
  "53704": {
    "noradId": "53704",
    "tle": [
      "1 53704C 22107E   26029.19284722 -.00008922  00000+0 -56001-3 0   296",
      "2 53704  53.2173  61.6865 0001228  94.4812  45.5870 15.08813409    14"
    ]
  },
  "53705": {
    "noradId": "53705",
    "tle": [
      "1 53705C 22107F   26029.18798611 -.00017951  00000+0 -11255-2 0   296",
      "2 53705  53.2172  61.6689 0001387  86.5981  47.0523 15.08859828    10"
    ]
  },
  "53706": {
    "noradId": "53706",
    "tle": [
      "1 53706C 22107G   26029.18937500 -.00046794  00000+0 -29311-2 0   298",
      "2 53706  53.2165  61.5042 0001352  90.7337 130.5570 15.08925164    16"
    ]
  },
  "53707": {
    "noradId": "53707",
    "tle": [
      "1 53707C 22107H   26029.19076389 -.00010435  00000+0 -65437-3 0   292",
      "2 53707  53.2171  46.4539 0001299  91.3742 180.0083 15.08848877    18"
    ]
  },
  "53708": {
    "noradId": "53708",
    "tle": [
      "1 53708C 22107J   26029.19006944 -.00020618  00000+0 -12931-2 0   297",
      "2 53708  53.2179  46.3076 0001384  87.4156 260.3141 15.08854517    17"
    ]
  },
  "53709": {
    "noradId": "53709",
    "tle": [
      "1 53709C 22107K   26029.19215278 -.00016257  00000+0 -10193-2 0   292",
      "2 53709  53.2171  66.1283 0001698  93.0143 336.1310 15.08856839    16"
    ]
  },
  "53711": {
    "noradId": "53711",
    "tle": [
      "1 53711C 22107M   26029.19493056  .00004028  00000+0  25272-3 0   293",
      "2 53711  53.2171  66.2258 0001182  74.3769 309.8791 15.08814264    12"
    ]
  },
  "53712": {
    "noradId": "53712",
    "tle": [
      "1 53712C 22107N   26029.19145833 -.00011102  00000+0 -69620-3 0   299",
      "2 53712  53.2163  65.9821 0001423  88.9413  56.5310 15.08848339    14"
    ]
  },
  "53715": {
    "noradId": "53715",
    "tle": [
      "1 53715C 22107R   26029.18798611 -.00020447  00000+0 -12822-2 0   292",
      "2 53715  53.2164  71.1686 0001536  83.6110 295.3852 15.08857937    15"
    ]
  },
  "53716": {
    "noradId": "53716",
    "tle": [
      "1 53716C 22107S   26029.18868056 -.00016621  00000+0 -10422-2 0   297",
      "2 53716  53.2165  71.1276 0001444  84.1279 318.6586 15.08857314    14"
    ]
  },
  "53718": {
    "noradId": "53718",
    "tle": [
      "1 53718C 22107U   26029.18590278 -.00014447  00000+0 -90588-3 0   293",
      "2 53718  53.2160  71.7248 0001440  84.6056 357.4974 15.08854156    13"
    ]
  },
  "53719": {
    "noradId": "53719",
    "tle": [
      "1 53719C 22107V   26029.19215278 -.00023146  00000+0 -14514-2 0   299",
      "2 53719  53.2176  41.0554 0001429  90.7339  15.9702 15.08860669    11"
    ]
  },
  "53720": {
    "noradId": "53720",
    "tle": [
      "1 53720C 22107W   26029.19493056 -.00014280  00000+0 -89544-3 0   298",
      "2 53720  53.2169  71.1795 0001975  79.9790 316.7292 15.08853382    12"
    ]
  },
  "53721": {
    "noradId": "53721",
    "tle": [
      "1 53721C 22107X   26029.18937500 -.00024308  00000+0 -15242-2 0   290",
      "2 53721  53.2170  71.2822 0001414  93.4967 232.9641 15.08864797    11"
    ]
  },
  "53722": {
    "noradId": "53722",
    "tle": [
      "1 53722C 22107Y   26029.18937500 -.00010044  00000+0 -62984-3 0   299",
      "2 53722  53.2170  71.3575 0001323  92.7998 193.6205 15.08848666    19"
    ]
  },
  "53723": {
    "noradId": "53723",
    "tle": [
      "1 53723C 22107Z   26029.18798611 -.00026477  00000+0 -16604-2 0   292",
      "2 53723  53.2164  71.0957 0001473  86.7475 332.2998 15.08862750    13"
    ]
  },
  "53724": {
    "noradId": "53724",
    "tle": [
      "1 53724C 22107AA  26029.18937500 -.00011002  00000+0 -68991-3 0   290",
      "2 53724  53.2171  71.2424 0001466  69.2707 277.2307 15.08849993    15"
    ]
  },
  "53726": {
    "noradId": "53726",
    "tle": [
      "1 53726C 22107AC  26029.19354167 -.00011773  00000+0 -73827-3 0   294",
      "2 53726  53.2170  71.3036 0001329  88.0244 241.0485 15.08850843    11"
    ]
  },
  "53727": {
    "noradId": "53727",
    "tle": [
      "1 53727C 22107AD  26029.18868056 -.00015337  00000+0 -96175-3 0   292",
      "2 53727  53.2170  71.4427 0001173  95.9092 146.6740 15.08853057    16"
    ]
  },
  "53728": {
    "noradId": "53728",
    "tle": [
      "1 53728C 22107AE  26029.19493056 -.00016633  00000+0 -10430-2 0   297",
      "2 53728  53.2170  71.3753 0001324  89.5747 207.0121 15.08854485    13"
    ]
  },
  "53729": {
    "noradId": "53729",
    "tle": [
      "1 53729C 22107AF  26029.19284722  .00007364  00000+0  46155-3 0   299",
      "2 53729  53.2159  71.5420 0001370  86.8149 118.2088 15.08849278    10"
    ]
  },
  "53730": {
    "noradId": "53730",
    "tle": [
      "1 53730C 22107AG  26029.19354167 -.00015496  00000+0 -97172-3 0   294",
      "2 53730  53.2168  71.4601 0001342  93.0907 155.8822 15.08853977    17"
    ]
  },
  "53731": {
    "noradId": "53731",
    "tle": [
      "1 53731C 22107AH  26029.20187500  .00034080  00000+0  20599-2 0   298",
      "2 53731  53.2159  71.4019 0003380  37.2163 267.6589 15.10139715    11"
    ]
  },
  "53732": {
    "noradId": "53732",
    "tle": [
      "1 53732C 22107AJ  26029.19284722 -.00018407  00000+0 -11543-2 0   297",
      "2 53732  53.2159  71.5126 0001328  89.7896 130.1847 15.08854960    11"
    ]
  },
  "53733": {
    "noradId": "53733",
    "tle": [
      "1 53733C 22107AK  26029.19076389 -.00026957  00000+0 -16906-2 0   293",
      "2 53733  53.2160  71.6680 0001379  86.8577  46.9009 15.08860788    19"
    ]
  }
}